NORAD_CAT_ID,OBJECT_NAME,OBJECT_TYPE,EPOCH,MEAN_MOTION,ECCENTRICITY,INCLINATION,RA_OF_ASC_NODE,ARG_OF_PERICENTER,MEAN_ANOMALY,BSTAR,MEAN_MOTION_DOT,MEAN_MOTION_DDOT,TLE_LINE0,TLE_LINE1,TLE_LINE2,SEMIMAJOR_AXIS,PERIOD,APOGEE,PERIGEE,DECAYED
53577.0,STARLINK-4553,PAYLOAD,2022-11-05 00:00:00,15.36419338,0.0001271,53.2171,134.8451,77.0972,167.4496,-0.034415,-0.0113278,0.0,0 STARLINK-4553,1 53577U 22101BC  22309.00001157 -.01132780  00000-0 -34415-1 0  9995,2 53577  53.2171 134.8451 0001271  77.0972 167.4496 15.36419338  1301,6834.845,93.724,457.579,455.841,0.0
53577.0,STARLINK-4553,PAYLOAD,2022-11-05 14:00:01,15.35012233,0.0001384,53.2166,132.1148,65.2096,166.1742,-0.036838,-0.01156449,0.0,0 STARLINK-4553,1 53577U 22101BC  22309.58335648 -.01156449  00000-0 -36838-1 0  9992,2 53577  53.2166 132.1148 0001384  65.2096 166.1742 15.35012233 12236,6839.021,93.81,461.833,459.94,0.0
53577.0,STARLINK-4553,PAYLOAD,2022-11-05 22:00:01,15.34199328,0.0001252999999999,53.2168,130.5602,81.4812,192.4303,-0.037819,-0.0115665,0.0,0 STARLINK-4553,1 53577U 22101BC  22309.91668981 -.01156650  00000-0 -37819-1 0  9992,2 53577  53.2168 130.5602 0001253  81.4812 192.4303 15.34199328  1307,6841.437,93.86,464.159,462.445,0.0
53577.0,STARLINK-4553,PAYLOAD,2022-11-06 14:00:01,15.32576428,0.0001242,53.2165,127.4506,69.0039,286.9688,-0.040061,-0.01162959,0.0,0 STARLINK-4553,1 53577U 22101BC  22310.58334491 -.01162959  00000-0 -40061-1 0  9995,2 53577  53.2165 127.4506 0001242  69.0039 286.9688 15.32576428 12397,6846.266,93.959,468.981,467.28,0.0
53577.0,STARLINK-4553,PAYLOAD,2022-11-07 22:00:00,15.29298067,0.0001491,53.2174,121.2602,57.8697,90.6316,-0.043027,-0.01130314,0.0,0 STARLINK-4553,1 53577U 22101BC  22311.91667824 -.01130314  00000-0 -43027-1 0  9997,2 53577  53.2174 121.2602 0001491  57.8697  90.6316 15.29298067 12593,6856.045999999999,94.161,478.934,476.889,0.0
53577.0,STARLINK-4553,PAYLOAD,2022-11-08 14:00:01,15.2769738,0.0001403,53.2166,118.1743,73.6592,145.2214,-0.04679,-0.0118227,0.0,0 STARLINK-4553,1 53577U 22101BC  22312.58334491 -.01182270  00000-0 -46790-1 0  9990,2 53577  53.2166 118.1743 0001403  73.6592 145.2214 15.27697380 12692,6860.835,94.26,483.662,481.737,0.0
53577.0,STARLINK-4553,PAYLOAD,2022-11-08 22:00:00,15.26868464,0.0001493,53.2165,116.6367,62.1974,190.4179,-0.046988,-0.01144126,0.0,0 STARLINK-4553,1 53577U 22101BC  22312.91667824 -.01144126  00000-0 -46988-1 0  9993,2 53577  53.2165 116.6367 0001493  62.1974 190.4179 15.26868464  1302,6863.318,94.311,486.207,484.158,0.0
53577.0,STARLINK-4553,PAYLOAD,2022-11-09 14:00:01,15.25264623,0.0001312,53.2167,113.5618,70.328,246.8018,-0.050871,-0.01192715,0.0,0 STARLINK-4553,1 53577U 22101BC  22313.58334491 -.01192715  00000-0 -50871-1 0  9991,2 53577  53.2167 113.5618 0001312  70.3280 246.8018 15.25264623  1304,6868.128000000002,94.41,490.894,489.092,0.0
53577.0,STARLINK-4553,PAYLOAD,2022-11-09 22:00:01,15.24457682,0.0001304,53.2166,112.0299,52.205,295.7787,-0.052492,-0.01200471,0.0,0 STARLINK-4553,1 53577U 22101BC  22313.91668981 -.01200471  00000-0 -52492-1 0  9992,2 53577  53.2166 112.0299 0001304  52.2050 295.7787 15.24457682 12909,6870.551,94.46,493.312,491.52,0.0
53577.0,STARLINK-4553,PAYLOAD,2022-11-10 00:00:00,15.24223709,0.0001463,53.2166,111.6463,50.5614,34.9223,-0.050995,-0.01161338,0.0,0 STARLINK-4553,1 53577U 22101BC  22314.00001157 -.01161338  00000-0 -50995-1 0  9993,2 53577  53.2166 111.6463 0001463  50.5614  34.9223 15.24223709  1301,6871.254,94.474,494.125,492.114,0.0
53577.0,STARLINK-4553,PAYLOAD,2022-11-10 14:00:01,15.228106900000002,0.0001329,53.2169,108.9668,58.7467,347.8437,-0.053974,-0.0117697,0.0,0 STARLINK-4553,1 53577U 22101BC  22314.58334491 -.01176970  00000-0 -53974-1 0  9994,2 53577  53.2169 108.9668 0001329  58.7467 347.8437 15.22810690  1309,6875.504,94.562,498.283,496.456,0.0
53577.0,STARLINK-4553,PAYLOAD,2022-11-10 16:00:00,15.22587452,0.0001533,53.217,108.5852,60.896,82.7609,-0.0529669999999999,-0.01149652,0.0,0 STARLINK-4553,1 53577U 22101BC  22314.66667824 -.01149652  00000-0 -52967-1 0  9990,2 53577  53.2170 108.5852 0001533  60.8960  82.7609 15.22587452 13015,6876.176,94.576,499.096,496.987,0.0
53577.0,STARLINK-4553,PAYLOAD,2022-11-10 22:00:00,15.21991941,0.0001511,53.2166,107.4405,48.2357,26.2171,-0.05484,-0.01167911,0.0,0 STARLINK-4553,1 53577U 22101BC  22314.91667824 -.01167911  00000-0 -54840-1 0  9998,2 53577  53.2166 107.4405 0001511  48.2357  26.2171 15.21991941  1305,6877.97,94.613,500.874,498.796,0.0
53577.0,STARLINK-4553,PAYLOAD,2022-11-11 14:00:01,15.20365784,0.0001518,53.217,104.3889,60.7285,66.5161,-0.057742,-0.01171785,0.0,0 STARLINK-4553,1 53577U 22101BC  22315.58334491 -.01171785  00000-0 -57742-1 0  9991,2 53577  53.2170 104.3889 0001518  60.7285  66.5161 15.20365784 13159,6882.873000000001,94.714,505.783,503.694,0.0
53577.0,STARLINK-4553,PAYLOAD,2022-11-11 22:00:00,15.19550505,0.000166,53.2168,102.868,51.9497,100.2224,-0.058901,-0.01167488,0.0,0 STARLINK-4553,1 53577U 22101BC  22315.91667824 -.01167488  00000-0 -58901-1 0  9990,2 53577  53.2168 102.8680 0001660  51.9497 100.2224 15.19550505  1308,6885.335,94.765,508.343,506.057,0.0
53577.0,STARLINK-4553,PAYLOAD,2022-11-12 14:00:01,15.17936468,0.00015,53.2172,99.8281,58.6233,140.467,-0.062878,-0.01187398,0.0,0 STARLINK-4553,1 53577U 22101BC  22316.58334491 -.01187398  00000-0 -62878-1 0  9995,2 53577  53.2172  99.8281 0001500  58.6233 140.4670 15.17936468  1305,6890.215,94.866,513.114,511.047,0.0
53577.0,STARLINK-4553,PAYLOAD,2022-11-12 22:00:00,15.17104578,0.0001529,53.2169,98.3128,53.7783,167.3149,-0.062908,-0.01161904,0.0,0 STARLINK-4553,1 53577U 22101BC  22316.91667824 -.01161904  00000-0 -62908-1 0  9990,2 53577  53.2169  98.3128 0001529  53.7783 167.3149 15.17104578 13358,6892.734,94.918,515.653,513.545,0.0
53577.0,STARLINK-4553,PAYLOAD,2022-11-13 00:00:00,15.16892507,0.0001375999999999,53.217,97.9333,51.9923,264.452,-0.062667,-0.0115126,0.0,0 STARLINK-4553,1 53577U 22101BC  22317.00001157 -.01151260  00000-0 -62667-1 0  9998,2 53577  53.2170  97.9333 0001376  51.9923 264.4520 15.16892507  1308,6893.376,94.931,516.19,514.293,0.0
53577.0,STARLINK-4553,PAYLOAD,2022-11-13 14:00:01,15.154922199999998,0.0001438,53.2173,95.2846,62.3243,199.8173,-0.067074,-0.01181165,0.0,0 STARLINK-4553,1 53577U 22101BC  22317.58334491 -.01181165  00000-0 -67074-1 0  9995,2 53577  53.2173  95.2846 0001438  62.3243 199.8173 15.15492220  1303,6897.621999999999,95.019,520.479,518.495,0.0
53577.0,STARLINK-4553,PAYLOAD,2022-11-13 22:00:00,15.14668157,0.0001536,53.2168,93.7747,47.5122,233.6958,-0.067843,-0.01168107,0.0,0 STARLINK-4553,1 53577U 22101BC  22317.91667824 -.01168107  00000-0 -67843-1 0  9996,2 53577  53.2168  93.7747 0001536  47.5122 233.6958 15.14668157 13506,6900.123000000001,95.07,523.048,520.928,0.0
53577.0,STARLINK-4553,PAYLOAD,2022-11-14 14:00:01,15.13024279,0.0001536,53.2174,90.758,49.3798,267.0258,-0.069558,-0.01145108,0.0,0 STARLINK-4553,1 53577U 22101BC  22318.58334491 -.01145108  00000-0 -69558-1 0  9992,2 53577  53.2174  90.7580 0001536  49.3798 267.0258 15.13024279  1303,6905.12,95.174,528.0459999999998,525.925,0.0
53577.0,STARLINK-4553,PAYLOAD,2022-11-14 22:00:00,15.12213333,0.0001704,53.2171,89.2531,38.1849,294.3474,-0.071479,-0.01149844,0.0,0 STARLINK-4553,1 53577U 22101BC  22318.91667824 -.01149844  00000-0 -71479-1 0  9994,2 53577  53.2171  89.2531 0001704  38.1849 294.3474 15.12213333  1302,6907.589,95.225,530.631,528.2769999999998,0.0
53577.0,STARLINK-4553,PAYLOAD,2022-11-15 06:00:00,15.11394807,0.0001266,53.2173,87.7482,64.2672,283.4178,-0.072627,-0.01142388,0.0,0 STARLINK-4553,1 53577U 22101BC  22319.25001157 -.01142388  00000-0 -72627-1 0  9995,2 53577  53.2173  87.7482 0001266  64.2672 283.4178 15.11394807 13712,6910.081999999999,95.276,532.822,531.073,0.0
53577.0,STARLINK-4553,PAYLOAD,2022-11-15 14:00:01,15.10618405,0.0001326,53.2176,86.2483,56.0221,305.8156,-0.077816,-0.01193337,0.0,0 STARLINK-4553,1 53577U 22101BC  22319.58334491 -.01193337  00000-0 -77816-1 0  9996,2 53577  53.2176  86.2483 0001326  56.0221 305.8156 15.10618405  1305,6912.45,95.325,535.231,533.398,0.0
53577.0,STARLINK-4553,PAYLOAD,2022-11-15 22:00:00,15.09658737,0.0001268,53.2172,84.7488,53.7078,321.3617,-0.055209,-0.00837128,0.0,0 STARLINK-4553,1 53577U 22101BC  22319.91667824 -.00837128  00000-0 -55209-1 0  9996,2 53577  53.2172  84.7488 0001268  53.7078 321.3617 15.09658737  1303,6915.379,95.386,538.121,536.367,0.0
53577.0,STARLINK-4553,PAYLOAD,2022-11-16 04:00:00,15.09082609,0.0001284,53.2175,83.6243,59.091,235.224,-0.022538,-0.00344466,0.0,0 STARLINK-4553,1 53577U 22101BC  22320.16667824 -.00344466  00000-0 -22538-1 0  9992,2 53577  53.2175  83.6243 0001284  59.0910 235.2240 15.09082609 13852,6917.139,95.422,539.8919999999998,538.116,0.0
53577.0,STARLINK-4553,PAYLOAD,2022-11-16 14:00:01,15.08837307,0.000152,53.2175,81.7548,62.2751,336.7309,-4.6942e-05,-1.035e-05,0.0,0 STARLINK-4553,1 53577U 22101BC  22320.58335648 -.00001035  00000-0 -46942-4 0  9994,2 53577  53.2175  81.7548 0001520  62.2751 336.7309 15.08837307 13913,6917.889,95.438,540.805,538.702,0.0
53577.0,STARLINK-4553,PAYLOAD,2022-11-16 22:00:08,15.08837839,0.0001495,53.2172,80.2579,60.9793,349.9964,-0.00011605,-2.134e-05,0.0,0 STARLINK-4553,1 53577U 22101BC  22320.91675926 -.00002134  00000-0 -11605-3 0  9995,2 53577  53.2172  80.2579 0001495  60.9793 349.9964 15.08837839  1303,6917.887,95.438,540.786,538.7180000000002,0.0
53577.0,STARLINK-4553,PAYLOAD,2022-11-17 14:00:01,15.08822825,0.000153,53.2167,77.2677,46.4916,27.2366,-0.00077699,-0.00012627,0.0,0 STARLINK-4553,1 53577U 22101BC  22321.58334491 -.00012627  00000-0 -77699-3 0  9991,2 53577  53.2167  77.2677 0001530  46.4916  27.2366 15.08822825  1309,6917.933000000001,95.439,540.856,538.739,0.0
